[{"OBJECT_NAME":"NUSAT-50 (NANCY ROMAN)","OBJECT_ID":"2024-149AB","EPOCH":"2026-03-09T19:15:16.765632","MEAN_MOTION":15.29713355,"ECCENTRICITY":0.00025229,"INCLINATION":97.3817,"RA_OF_ASC_NODE":150.7693,"ARG_OF_PERICENTER":238.0469,"MEAN_ANOMALY":122.0527,"EPHEMERIS_TYPE":0,"CLASSIFICATION_TYPE":"U","NORAD_CAT_ID":60493,"ELEMENT_SET_NO":999,"REV_AT_EPOCH":8693,"BSTAR":0.0004225155,"MEAN_MOTION_DOT":0.00012094,"MEAN_MOTION_DDOT":0},{"OBJECT_NAME":"STARLINK-35389","OBJECT_ID":"2025-259N","EPOCH":"2026-03-09T22:40:12.194976","MEAN_MOTION":15.27589011,"ECCENTRICITY":0.00012827,"INCLINATION":43.0018,"RA_OF_ASC_NODE":272.6129,"ARG_OF_PERICENTER":244.3202,"MEAN_ANOMALY":115.7517,"EPHEMERIS_TYPE":0,"CLASSIFICATION_TYPE":"U","NORAD_CAT_ID":66434,"ELEMENT_SET_NO":999,"REV_AT_EPOCH":1953,"BSTAR":0.00091652927,"MEAN_MOTION_DOT":0.00025051,"MEAN_MOTION_DDOT":0}]
